NORAD_CAT_ID,OBJECT_NAME,OBJECT_TYPE,EPOCH,MEAN_MOTION,ECCENTRICITY,INCLINATION,RA_OF_ASC_NODE,ARG_OF_PERICENTER,MEAN_ANOMALY,BSTAR,MEAN_MOTION_DOT,MEAN_MOTION_DDOT,TLE_LINE0,TLE_LINE1,TLE_LINE2,SEMIMAJOR_AXIS,PERIOD,APOGEE,PERIGEE,DECAYED
51113.0,STARLINK-3372,PAYLOAD,2022-03-26 22:00:00,15.73219205,0.0002905,53.2144,303.5644,11.6454,354.8424,-0.00038318,-0.00054112,0.0,0 STARLINK-3372,1 51113U 22005K   22085.91667824 -.00054112  00000-0 -38318-3 0  9991,2 51113  53.2144 303.5644 0002905  11.6454 354.8424 15.73219205  3709,6727.84,91.532,351.66,347.751,0.0
51113.0,STARLINK-3372,PAYLOAD,2022-03-27 06:00:00,15.73180382,0.0002808,53.2137,301.914,8.1999,87.2112,5.7515e-05,7.451e-05,0.0,0 STARLINK-3372,1 51113U 22005K   22086.25001157  .00007451  00000-0  57515-4 0  9993,2 51113  53.2137 301.9140 0002808   8.1999  87.2112 15.73180382 11894,6727.951,91.534,351.705,347.927,0.0
51113.0,STARLINK-3372,PAYLOAD,2022-03-27 14:00:01,15.72888945,0.0002653,53.2162,300.2418,17.1177,167.2084,0.0033873,0.00497369,0.0,0 STARLINK-3372,1 51113U 22005K   22086.58334491  .00497369  00000-0  33873-2 0  9999,2 51113  53.2162 300.2418 0002653  17.1177 167.2084 15.72888945 11940,6728.781999999997,91.551,352.432,348.862,0.0
51113.0,STARLINK-3372,PAYLOAD,2022-03-27 22:00:01,15.73238459,0.0002963,53.214,298.6159,12.888,260.4567,-0.00017568,-0.00025251,0.0,0 STARLINK-3372,1 51113U 22005K   22086.91668981 -.00025251  00000-0 -17568-3 0  9993,2 51113  53.2140 298.6159 0002963  12.8880 260.4567 15.73238459 12005,6727.786,91.531,351.644,347.657,0.0
51113.0,STARLINK-3372,PAYLOAD,2022-03-28 06:00:00,15.73282559,0.0002898999999999,53.214,296.9653,11.2158,351.0293,-0.00038752,-0.0005486,0.0,0 STARLINK-3372,1 51113U 22005K   22087.25001157 -.00054860  00000-0 -38752-3 0  9993,2 51113  53.2140 296.9653 0002899  11.2158 351.0293 15.73282559 12052,6727.66,91.528,351.475,347.574,0.0
51113.0,STARLINK-3372,PAYLOAD,2022-03-28 14:00:01,15.73247687,0.0002777,53.214,295.3145,12.8216,78.5023,-0.00042806,-0.00060404,0.0,0 STARLINK-3372,1 51113U 22005K   22087.58335648 -.00060404  00000-0 -42806-3 0  9990,2 51113  53.2140 295.3145 0002777  12.8216  78.5023 15.73247687  3705,6727.759,91.53,351.49300000000005,347.756,0.0
51113.0,STARLINK-3372,PAYLOAD,2022-03-28 22:00:00,15.7321055,0.0003082,53.2135,293.6670000000001,12.6718,167.5497,-0.00026186,-0.00037237,0.0,0 STARLINK-3372,1 51113U 22005K   22087.91667824 -.00037237  00000-0 -26186-3 0  9992,2 51113  53.2135 293.6670 0003082  12.6718 167.5497 15.73210550  3688,6727.865,91.533,351.80400000000014,347.657,0.0
51113.0,STARLINK-3372,PAYLOAD,2022-03-29 14:00:01,15.73159613,0.0002874,53.2131,290.3659,18.601,339.4199,-0.00020568,-0.00029344,0.0,0 STARLINK-3372,1 51113U 22005K   22088.58334491 -.00029344  00000-0 -20568-3 0  9995,2 51113  53.2131 290.3659 0002874  18.6010 339.4199 15.73159613 12269,6728.01,91.536,351.809,347.94199999999995,0.0
51113.0,STARLINK-3372,PAYLOAD,2022-03-29 22:00:00,15.73111953,0.0003188,53.2131,288.7186,19.1393,67.7498,0.00063841,0.00089613,0.0,0 STARLINK-3372,1 51113U 22005K   22088.91667824  .00089613  00000-0  63841-3 0  9995,2 51113  53.2131 288.7186 0003188  19.1393  67.7498 15.73111953  3666,6728.146,91.538,352.156,347.866,0.0
51113.0,STARLINK-3372,PAYLOAD,2022-03-30 02:00:01,15.73147187,0.0003234,53.2128,287.8936,17.4359,293.8722,0.00055932,0.00078449,0.0,0 STARLINK-3372,1 51113U 22005K   22089.08334491  .00078449  00000-0  55932-3 0  9992,2 51113  53.2128 287.8936 0003234  17.4359 293.8722 15.73147187 12345,6728.045999999999,91.536,352.087,347.735,0.0
51113.0,STARLINK-3372,PAYLOAD,2022-03-30 12:00:00,15.73346641,0.0002973,53.2149,285.8169,21.7863,130.6263,-0.0022675,-0.00309491,0.0,0 STARLINK-3372,1 51113U 22005K   22089.50001157 -.00309491  00000-0 -22675-2 0  9992,2 51113  53.2149 285.8169 0002973  21.7863 130.6263 15.73346641 12402,6727.477,91.525,351.342,347.342,0.0
51113.0,STARLINK-3372,PAYLOAD,2022-03-30 14:00:01,15.73420187,0.0002868,53.2153,285.4022,16.717,247.9873,-0.0042663999999999,-0.00566367,0.0,0 STARLINK-3372,1 51113U 22005K   22089.58335648 -.00566367  00000-0 -42664-2 0  9992,2 51113  53.2153 285.4022 0002868  16.7170 247.9873 15.73420187  3675,6727.267,91.52,351.06199999999984,347.20300000000015,0.0
51113.0,STARLINK-3372,PAYLOAD,2022-03-30 20:00:01,15.73031588,0.0003109,53.2165,284.1595,13.2902,228.1362,-0.0019175,-0.00259814,0.0,0 STARLINK-3372,1 51113U 22005K   22089.83334491 -.00259814  00000-0 -19175-2 0  9992,2 51113  53.2165 284.1595 0003109  13.2902 228.1362 15.73031588 12467,6728.375,91.543,352.332,348.149,0.0
51113.0,STARLINK-3372,PAYLOAD,2022-03-30 22:00:00,15.73085673,0.0003207,53.2168,283.7451,9.8692,343.7058,-0.003629,-0.00479839,0.0,0 STARLINK-3372,1 51113U 22005K   22089.91667824 -.00479839  00000-0 -36290-2 0  9998,2 51113  53.2168 283.7451 0003207   9.8692 343.7058 15.73085673  3721,6728.221,91.54,352.244,347.92800000000005,0.0
51113.0,STARLINK-3372,PAYLOAD,2022-03-31 06:00:00,15.72744892,0.0002835,53.2174,282.0888,10.636,71.5437,-0.0056695,-0.00717945,0.0,0 STARLINK-3372,1 51113U 22005K   22090.25001157 -.00717945  00000-0 -56695-2 0  9992,2 51113  53.2174 282.0888 0002835  10.6360  71.5437 15.72744892 12521,6729.193,91.56,352.966,349.15,0.0
51113.0,STARLINK-3372,PAYLOAD,2022-03-31 14:00:01,15.72234578,0.0003108,53.2175,280.4388,10.9386,159.3127,-0.0057852,-0.00716917,0.0,0 STARLINK-3372,1 51113U 22005K   22090.58334491 -.00716917  00000-0 -57852-2 0  9992,2 51113  53.2175 280.4388 0003108  10.9386 159.3127 15.72234578  3698,6730.649,91.589,354.606,350.422,0.0
51113.0,STARLINK-3372,PAYLOAD,2022-03-31 22:00:00,15.71606739,0.0003382,53.2166,278.7978,305.4818,312.2848,-0.0045241,-0.00556475,0.0,0 STARLINK-3372,1 51113U 22005K   22090.91667824 -.00556475  00000-0 -45241-2 0  9998,2 51113  53.2166 278.7978 0003382 305.4818 312.2848 15.71606739  3678,6732.441,91.626,356.583,352.03,0.0
51113.0,STARLINK-3372,PAYLOAD,2022-04-01 06:00:00,15.71118541,0.0005195,53.2167,277.1493,291.0911,53.5116,-0.0048993,-0.0058851999999999,0.0,0 STARLINK-3372,1 51113U 22005K   22091.25001157 -.00588520  00000-0 -48993-2 0  9990,2 51113  53.2167 277.1493 0005195 291.0911  53.5116 15.71118541 12685,6733.8359999999975,91.654,359.199,352.20300000000015,0.0
51113.0,STARLINK-3372,PAYLOAD,2022-04-01 14:00:01,15.70714281,0.0004239,53.2177,275.4976,317.6398,113.1453,-0.0063231,-0.00733496,0.0,0 STARLINK-3372,1 51113U 22005K   22091.58334491 -.00733496  00000-0 -63231-2 0  9992,2 51113  53.2177 275.4976 0004239 317.6398 113.1453 15.70714281  3707,6734.991,91.678,359.711,354.001,0.0
51113.0,STARLINK-3372,PAYLOAD,2022-04-01 22:00:00,15.70198886,0.000326,53.2176,273.8546,284.3517,232.0547,-0.006386,-0.00725276,0.0,0 STARLINK-3372,1 51113U 22005K   22091.91667824 -.00725276  00000-0 -63860-2 0  9993,2 51113  53.2176 273.8546 0003260 284.3517 232.0547 15.70198886 12787,6736.465,91.708,360.526,356.134,0.0
51113.0,STARLINK-3372,PAYLOAD,2022-04-02 22:00:01,15.68663292,0.000116,53.2173,268.9282,57.2923,352.3649,-0.0066996,-0.00714107,0.0,0 STARLINK-3372,1 51113U 22005K   22092.91668981 -.00714107  00000-0 -66996-2 0  9993,2 51113  53.2173 268.9282 0001160  57.2923 352.3649 15.68663292 12943,6740.861,91.798,363.508,361.944,0.0
51113.0,STARLINK-3372,PAYLOAD,2022-04-03 22:00:00,15.67133431,0.0001116,53.2175,264.0128,80.1449,217.1155,-0.0071253,-0.00713228,0.0,0 STARLINK-3372,1 51113U 22005K   22093.91667824 -.00713228  00000-0 -71253-2 0  9994,2 51113  53.2175 264.0128 0001116  80.1449 217.1155 15.67133431 13105,6745.246999999999,91.888,367.865,366.359,0.0
51113.0,STARLINK-3372,PAYLOAD,2022-04-04 14:00:01,15.66116207,0.0001444,53.2175,260.7408,42.8491,56.4597,-0.0074791,-0.00717949,0.0,0 STARLINK-3372,1 51113U 22005K   22094.58334491 -.00717949  00000-0 -74791-2 0  9993,2 51113  53.2175 260.7408 0001444  42.8491  56.4597 15.66116207  3705,6748.167,91.947,371.007,369.0580000000001,0.0
51113.0,STARLINK-3372,PAYLOAD,2022-04-04 22:00:00,15.65600766,0.0001266,53.2172,259.1087,62.8955,116.5195,-0.0075264,-0.00708391,0.0,0 STARLINK-3372,1 51113U 22005K   22094.91667824 -.00708391  00000-0 -75264-2 0  9996,2 51113  53.2172 259.1087 0001266  62.8955 116.5195 15.65600766 13256,6749.649,91.977,372.36800000000005,370.659,0.0
51113.0,STARLINK-3372,PAYLOAD,2022-04-05 14:00:01,15.64586985,0.0001289,53.2175,255.8441,50.8264,287.0242,-0.0079638,-0.00718745,0.0,0 STARLINK-3372,1 51113U 22005K   22095.58335648 -.00718745  00000-0 -79638-2 0  9999,2 51113  53.2175 255.8441 0001289  50.8264 287.0242 15.64586985  3713,6752.564,92.037,375.299,373.5580000000001,0.0
51113.0,STARLINK-3372,PAYLOAD,2022-04-05 22:00:00,15.64074168,0.0001152,53.2173,254.2157,58.8523,357.1998,-0.0080619,-0.00713316,0.0,0 STARLINK-3372,1 51113U 22005K   22095.91667824 -.00713316  00000-0 -80619-2 0  9990,2 51113  53.2173 254.2157 0001152  58.8523 357.1998 15.64074168 13413,6754.04,92.067,376.6830000000001,375.127,0.0
51113.0,STARLINK-3372,PAYLOAD,2022-04-06 14:00:01,15.63054376,0.0001564999999999,53.2177,250.9587,46.0748,164.6731,-0.0083987,-0.00713728,0.0,0 STARLINK-3372,1 51113U 22005K   22096.58334491 -.00713728  00000-0 -83987-2 0  9993,2 51113  53.2177 250.9587 0001565  46.0748 164.6731 15.63054376  3708,6756.977,92.127,379.9,377.785,0.0
51113.0,STARLINK-3372,PAYLOAD,2022-04-06 22:00:00,15.62544497,0.0001264999999999,53.2173,249.3337,57.5072,229.668,-0.0085597,-0.00712953,0.0,0 STARLINK-3372,1 51113U 22005K   22096.91667824 -.00712953  00000-0 -85597-2 0  9997,2 51113  53.2173 249.3337 0001265  57.5072 229.6680 15.62544497 13571,6758.446999999999,92.157,381.167,379.457,0.0
51113.0,STARLINK-3372,PAYLOAD,2022-04-07 14:00:01,15.61525939,0.0001634,53.2174,246.0846,35.0828,43.1111,-0.0089502999999999,-0.00716146,0.0,0 STARLINK-3372,1 51113U 22005K   22097.58334491 -.00716146  00000-0 -89503-2 0  9991,2 51113  53.2174 246.0846 0001634  35.0828  43.1111 15.61525939  3702,6761.386,92.217,384.355,382.146,0.0
